GLOBALSTAR M045         
1 25676U 99019A   24161.66532878 -.00000033  00000+0  53672-3 0  9995
2 25676  51.9979 287.0155 0000873 157.8653 215.0647 12.27039930147664
GLOBALSTAR M019         
1 25677U 99019B   24161.89881369 -.00000143  00000+0 -55784-3 0  9992
2 25677  51.9901  30.5220 0000551 348.4305  24.9516 12.13857750139935
GLOBALSTAR M044         
1 25678U 99019C   24161.83350850 -.00000066  00000+0  25133-3 0  9991
2 25678  51.9980 295.4823 0006464  47.7335  73.1391 11.90233349126989
GLOBALSTAR M042         
1 25679U 99019D   24161.93492619 -.00000048  00000+0  41336-3 0  9996
2 25679  52.0039  21.8134 0002109 248.0467 244.7997 12.22062848139743
GLOBALSTAR M025         
1 25770U 99031A   24161.94047778 -.00000070  00000+0 -83093-4 0  9998
2 25770  51.9833 301.6041 0001328 215.9078 296.2652 11.22550597439907
GLOBALSTAR M049         
1 25771U 99031B   24161.78786484 -.00000047  00000+0  64677-3 0  9994
2 25771  51.9897 318.0054 0003464 113.2818 246.8343 11.12109672 75995
GLOBALSTAR M047         
1 25772U 99031C   24161.84329664 -.00000064  00000+0  16733-3 0  9994
2 25772  51.9859 350.4223 0016077 346.2234  13.8131 11.31921156428940
GLOBALSTAR M052         
1 25773U 99031D   24161.93875937 -.00000006  00000+0  20035-2 0  9999
2 25773  51.9883  71.5718 0002390 288.6575 152.4362 11.15051364436984
